Id,Name,City,State,Country,Latitude,Longitude,TotalInvoices,LastYearInvoices
"26ef793e-7fe0-e011-bd69-0026b9f9e50c","ABB Optical Group","Coral Springs","FL","","26.27994","-80.29056","502842.54","28170.00"
"925cf08b-56e1-db11-8eef-0003ff9e2b47","ABBOTT LABORATORIES","ABBOTT PARK","IL","USA","42.30227","-87.89083","68015.00","0.00"
"2138055b-a367-e011-939b-0026b9f9e50c","ABC Financial","Sherwood","AR","USA","34.8306","-92.23121","79264.41","0.00"
"73664b6e-7595-e211-92f3-0026b9f9e50c","ACE Hardware","Oak Brook","Illinois","United States","41.84348","-87.95147","412159.79","42520.64"
"81cf5384-987f-e211-92f3-0026b9f9e50c","Advanta IRA","Largo","FL","USA","27.89291","-82.76121","13313.75","0.00"
"fdfee454-4771-e211-92f3-0026b9f9e50c","Advocate Healthcare","Park Ridge","Illinois","United States","42.01126","-87.82352","0.00","0.00"
"4a2e2d67-e25d-df11-b9a6-00101826f7f4","Airoom Architects Inc","Lincolnwood","IL","","42.00515","-87.73042","0.00","0.00"
"31473030-3030-3031-384c-567457494157","Akron Brass","86 Wooster","OH","United States","40.41305","-82.71121","80932.18","80932.18"
"a8e6343d-e09a-e211-92f3-0026b9f9e50c","Ale Solutions, Inc.","Saint Charles","IL","US","41.91164","-88.31313","23517.48","0.00"
"61989397-3764-42b2-89e2-747bccaafc4d","Alexian Brothers Health System","Arlington Heights","IL","USA","42.09125","-88.01884","62959.72","0.00"
"fcb84cc1-c270-e211-92f3-0026b9f9e50c","Alliance of Merger & Acquisition Advisors","Chicago","Illinois","United States","41.88455","-87.62214","0.00","0.00"
"8bd4765c-36e3-469f-8d4a-0344586078f5","Allstate Corp","Northbrook","IL","USA","42.10327","-87.87549","42857.14","42857.14"
"e2c93341-c321-e111-ae50-0026b9f9e50c","Amec Foster Wheeler","Alpharetta","GA","US","34.04946","-84.31415","1296918.41","684310.27"
"e0ac296b-c8d8-dc11-bd0d-00101826f7f4","American Institutes for Research","Washington","DC","USA","38.90284","-77.06062","128657.50","0.00"
"ea121864-f5b0-e211-8486-0026b9f9e50c","American Nutrition Association","La Grange","Illinois","United States","41.80411","-87.88872","8178.75","0.00"
"6c59b49e-73fb-dc11-a14f-00101826f7f4","Ameriprise Financial, Inc.","Minneapolis","MN","US","44.9767","-93.26849","60800.00","0.00"
"41565842-4771-e211-92f3-0026b9f9e50c","Analysts International","","","","0","0","0.00","0.00"
"b4fdc25c-b76d-4588-b114-31cfb811c113","AON Hewitt LLC","Chicago","IL","US","42.2021","-87.8952","3648772.15","615146.25"
"31473030-3030-3031-5538-753050494152","Apex Supply Chain Technologies","Mason","OH","United States","39.3126","-84.30345","20394.05","18394.05"
"aced2ace-33a1-e211-92f3-0026b9f9e50c","Appcelerator Inc.","Mountain View","CA","US","37.38957","-122.05022","55487.50","0.00"
"fc7c241a-c296-dc11-b282-00101826f7f4","Argus Software","Houston","TX","","29.7346","-95.46072","1160654.57","0.00"
"f31b56dc-4699-4db8-ba1c-455c771d9893","ARTHUR J GALLAGHER & CO","Itasca","IL","USA","41.98806","-88.01484","30050.00","0.00"
"d7790b45-f64b-df11-b9a6-00101826f7f4","Avnet, Inc.","Phoenix","AZ","","33.42664","-111.98126","1414746.64","1414746.64"
"8c48fa1c-8030-44b7-b92f-6c14d4e15a02","Bain & Company","Boston","MA","USA","42.34683","-71.07542","76780.44","76780.44"
"d673b1ca-ee1a-4e4d-a9af-16edeee05199","Bally Technologies","Las Vegas","NV","United States","36.06974","-115.15588","896272.02","243767.21"
"21878fe3-7461-dc11-ab02-00101826f7f4","BDO USA, LLP","Chicago","IL","","41.88485","-87.61681","444850.49","427226.74"
"a2237c75-7561-dc11-ab02-00101826f7f4","Best Buy","RICHFIELD","MN","US","44.86388","-93.30611","1242231.89","0.00"
"2d2cc970-de6a-dd11-ba46-00101826f7f4","BigMachines Inc.","Deerfield","IL","","42.15381","-87.84337","123281.55","79.00"
"3bdd7bc2-d09d-e011-8a04-0026b9f9e50c","Blackman Kallick","Chicago","IL","USA","41.88167","-87.6388","0.00","0.00"
"e23837c6-fae2-4aa4-b9d7-c10e5a970457","Boise Paper","Vancouver","WA","","43.61963","0","114783.83","101008.83"
"9cbf9049-d3a7-e311-9df5-0026b9f9e50c","Boston Consulting Group","Boston","MA","United States","0","0","751636.58","711500.46"
"b0ec6d3c-dd8c-de11-af38-00101826f7f4","Brookfield Asset Management Inc.","Toronto","ON","Canada","43.65031","-79.37829","152307.23","0.00"
"75cdef8e-0f76-de11-b9e8-00101826f7f4","Brookfield Technology Services","New York","NY","USA","40.71375","-74.01403","0.00","0.00"
"50818401-c453-e311-8486-0026b9f9e50c","Brooklyn Brewery","Brooklyn","NY","","40.72165","-73.95787","10165.00","10165.00"
"f8312569-7561-dc11-ab02-00101826f7f4","Burns & McDonnell","KANSAS CITY","MO","US","38.95904","-94.59791","524607.90","4180.00"
"44846fc9-f1e3-dc11-bd0d-00101826f7f4","Burr Pilger  Mayer","San Francisco","CA","USA","37.79311","-122.40486","19665.61","19665.61"
"075ab49e-73fb-dc11-a14f-00101826f7f4","Cambria Suites","Silver Spring","MD","","39.03208","-77.00411","0.00","0.00"
"6de774b2-7561-dc11-ab02-00101826f7f4","CAMDEN PROPERTY TRUST","HOUSTON","TX","","29.73179","-95.43115","2500.00","0.00"
"cc7a299f-27b8-de11-8cc3-00101826f7f4","Canadian Imperial Bank of Commerce ("CIBC")","Toronto","ON","","43.64842","-79.37905","517419.60","0.00"
"9539dcad-d83d-db11-8386-0003ff32d6e5","Cancer Treatment Centers Of America, Inc.","Schaumburg","IL","USA","42.05494","-88.06556","575777.93","0.00"
"31473030-3030-3030-794a-776164494143","Cannon Design","Grand Island","New York","United States","43.02071","-78.97187","208638.19","46247.50"
"31473030-3030-3031-5a48-396a67494144","Capstone Publishing","","","","0","0","91292.40","78597.40"
"5039e5d2-787c-44a6-a5b6-aebef296470d","CarMax, Inc.","Richmond","VA","US","37.63656","-77.6722","53360.00","4530.00"
"81950ece-1519-e511-80bd-00155dfc3b0a","CData Software","Chapel Hill","NC","United States","35.88169","-79.06657","1000.00","1000.00"
"2691fba3-95ff-de11-a75b-00101826f7f4","Cerner Corporation","Kansas City","MO","USA","39.15034","-94.54587","36890.15","0.00"
"31473030-3030-3031-4749-747034494144","Change.org","San Francisco","California","United States","37.77962","-122.39124","4000.00","0.00"
"d4faff2a-c89a-dd11-bee3-00101826f7f4","Checkfree - now part of Fiserv","","","","0","0","0.00","0.00"
"3aa31481-43af-e111-b5e5-0026b9f9e50c","Cherry Bekaert LLP","Richmond","VA","","37.53598","-77.43755","20473.00","11400.00"
"fa59b49e-73fb-dc11-a14f-00101826f7f4","Chester's International, LLC","Birmingham","AL","USA","33.43828","-86.73042","79635.20","1275.00"
"d1a4c99e-e6c5-4d14-921f-09b785519934","Chicago Blackhawks","Chicago","IL","USA","41.88062","-87.67476","0.00","0.00"
"f8db7efd-53fd-45fb-a682-b7bd67d89935","Chicago Bulls","Chicago","IL","United States","41.88062","-87.67476","0.00","0.00"
"a0b48531-4adb-dc11-bd0d-00101826f7f4","Chloride North America","Libertyville","IL","","42.26836","-87.90683","2500.00","0.00"
"9ade1e74-8187-4785-ab26-6b49990f307f","CHOBANI INC","","","","0","0","60000.00","60000.00"
"1ab1f311-1ca0-47e7-a31d-5a0d52eaa7cf","Choice Hotels International, Inc.","Rockville","MD","USA","39.03145","-77.0047","2058556.85","53291.25"
"aca7789a-5fd8-dc11-bd0d-00101826f7f4","CINCOM CINCINNATI","CINCINNATI","OH","USA","39.27891","-84.46995","2050.00","0.00"
"cba326bb-4294-4a7b-af1b-4c2b59db0a0f","Cision","Chicago","IL","USA","41.87725","-87.62445","140226.50","0.00"
"ae32f234-95e7-db11-882b-0003ff9e2b47","Citizens Energy","Boston","MA","USA","42.34395","-71.02805","1037207.17","611.25"
"3591fba3-95ff-de11-a75b-00101826f7f4","Clayco, Inc.","Saint Louis","MO","US","38.69234","-90.35209","48179.59","47803.34"
"3d0a79d6-b85a-e211-92f3-0026b9f9e50c","ClearSlide, Inc.","San Francisco","CA","","37.79041","-122.39928","288716.04","168725.00"
"ebfa1798-56e1-db11-8eef-0003ff9e2b47","CliftonLarsonAllen","CLINTON","WI","US","43.04072","-88.03649","252561.61","37625.00"
"31473030-3030-3030-7764-314b74494149","CME Group","Chicago","Illinois","United States","41.88253","-87.63751","477592.79","195855.77"
"939430cf-d61e-e211-bb4e-0026b9f9e50c","CohnReznick LLP","New York","NY","","40.75829","-73.98119","14000.00","14000.00"
"55296ed5-a854-4f91-b35d-162b313d0f43","Combined Insurance Company of America","Chicago","IL","US","41.88526","-87.62149","2191.00","0.00"
"0b5ab49e-73fb-dc11-a14f-00101826f7f4","Comfort Inn, Suites, And Hotels","Silver Spring","MD","","39.03208","-77.00411","0.00","0.00"
"86683c1e-3f8a-450b-acf6-fbb9eb7d8c2d","ComPsych Employee Assistance","Chicago","IL","USA","41.89249","-87.61895","11666.00","0.00"
"6058b7dc-a06f-dd11-bee3-00101826f7f4","CompTIA","Oakbrook Terrace","IL","","41.84872","-87.99133","11309.00","0.00"
"045e29ec-ba9e-dd11-bee3-00101826f7f4","Cook County Clerks Office","Chicago","IL","","41.88285","-87.63002","232588.50","0.00"
"1acfea87-6f07-df11-a75b-00101826f7f4","Corbion","Lenexa","KS","US","38.98465","-94.72268","760602.91","0.00"
"31473030-3030-3031-4231-793468494142","Core BTS","Indianapolis","Indiana","United States","39.93226","-86.16279","63789.91","15733.95"
"8bee34ab-55d7-e211-8486-0026b9f9e50c","CSIG","Chicago","IL","","41.88034","-87.63007","3748.75","0.00"
"31473030-3030-3031-5565-473135494146","Curriculum Associates","North Billerica","MA","","42.57431","-71.29444","228500.52","212228.02"
"78afad22-0079-dd11-bee3-00101826f7f4","Davey Tree","Kent","OH","USA","41.17119","-81.35366","310133.13","0.00"
"15c43696-cf93-dc11-b282-00101826f7f4","Davies Smith Developments","Toronto ","ONT","Canada","43.62545","-79.55925","29175.00","0.00"
"47c31765-2dd7-e111-aa06-0026b9f9e50c","DCI Consulting Group","Washington DC","DC","USA","38.90127","-77.04446","533196.49","255.00"
"a09514c8-5124-413d-95f2-8d9cbd166082","Deloitte LLP","New York","NY","","40.76719","-73.99181","1298973.15","735596.25"
"98e7f307-9ea3-e211-92f3-0026b9f9e50c","Delta Dental of Wisconsin","Stevens Point","WI","","44.52821","-89.63914","0.00","0.00"
"03dbec4e-4771-e211-92f3-0026b9f9e50c","Delta Dental Plans Association","Oak Brook","Illinois","United States","41.8467","-87.9556","20242.50","780.00"
"d828d479-8d1f-e211-bb4e-0026b9f9e50c","Detroit Lions","Allen Park","MI","","42.30011","-83.20049","466987.68","200900.00"
"defee454-4771-e211-92f3-0026b9f9e50c","Diamond Chain","Indianapolis","Indiana","United States","39.76177","-86.16941","0.00","0.00"
"664c6ddf-4d2b-e111-a4ff-0026b9f9e50c","Didion Milling","Johnson Creek","WI","US","43.0832","-88.76624","135766.91","12067.50"
"3fee82fd-b486-de11-b07e-00101826f7f4","DineEquity, Inc.","Glendale","CA","","34.15261","-118.25435","26873.81","26873.81"
"e663764c-a8c4-e211-8486-0026b9f9e50c","Dollar Energy Fund, Inc.","Pittsburgh","PA","","40.42264","-79.9788","93957.28","875.00"
"253dd64a-0ed3-e411-80ba-00155dfc3b0a","Donan","Louisville","Kentucky","","38.21059","-85.54608","35248.65","31788.65"
"d95a9c74-18aa-e311-9df5-0026b9f9e50c","Door to Door Organics","Louisville","CO","","39.97481","-105.07288","17267.50","1451.25"
"7353da5f-e103-dc11-bb0f-00101826f7f4","DTZ (Formerly UGL Services)","Chicago","IL","United States","41.88654","-87.63073","152517.50","5645.00"
"55a2cf1a-1dc1-4e8f-a933-588d268b83f4","DUN & BRADSTREET CORPORATION","NEW YORK","NJ","US","40.74138","-74.35873","799652.16","0.00"
"e79cdb0b-876e-da11-8b36-0003ff19cd51","Echo Global Logistics","Chicago","Illinois","United States","41.89937","-87.64381","106805.09","47070.10"
"27794eec-8a5e-dd11-ba46-00101826f7f4","EHL Insurance","Poulsbo","WA","","47.75424","-122.62032","15000.00","0.00"
"9e5cf08b-56e1-db11-8eef-0003ff9e2b47","Eli Lilly and Company","INDIANAPOLIS","IN","USA","39.75626","-86.1543","222475.00","78975.00"
"d8d0fd18-beff-da11-8305-0003ff32d6e5","Embrace Pet Insurance","Chagrin Falls","OH","USA","41.42238","-81.39635","18000.75","18000.75"
"28a9b307-7566-e311-8486-0026b9f9e50c","Essex Crane Rental Corp.","Buffalo Grove","IL","","42.1532","-87.94424","5921.25","1408.75"
"ad8d60d8-ce7d-4713-aed9-ce99ae469f76","Eurasia Group","New York","NY","","40.75263","-73.98144","38022.99","0.00"
"234ab8c4-0916-db11-955e-0003ff32d6e5","ExactTarget, Inc.","Indianapolis","IN","USA","39.76775","-86.15843","7714439.22","1720800.22"
"9e7ab2cc-f4b0-e211-8486-0026b9f9e50c","Exponent Partners","San Francisco","California","United States","37.78215","-122.4066","7565.00","0.00"
"0fb8fcad-b94f-e411-9bfa-0026b9f9e50c","ExteNet Systems","Lisle","IL","US","41.80954","-88.11111","100898.44","94145.94"
"7331491e-e303-dc11-bb0f-00101826f7f4","Feralloy Corp.","Chicago","IL","USA","41.98647","-87.84557","0.00","0.00"
"d30abfd4-1d95-e411-b7a3-0026b9f9e50c","Feralloy Corporation","Chicago","IL","","41.98652","-87.84557","86681.31","81248.81"
"5d295402-8507-df11-a75b-00101826f7f4","Fieldpoint Service Applications Inc","Oakville","ON","","39.45","-98.908","11400.00","0.00"
"39a840de-df21-dd11-a14f-00101826f7f4","First American Bank","Elk Grove Village","IL","","42.0148","-87.96129","543466.50","142693.04"
"52142fb1-da24-dd11-8d4f-00101826f7f4","Fiserv","Lake Mary","FL","USA","28.79285","-81.35454","1968079.34","3576.25"
"138dc19b-5c4f-dd11-ba46-00101826f7f4","Flexpoint Ford, LLC","Chicago","IL","USA","41.89474","-87.62494","110927.00","0.00"
"6d10d53d-0a2c-465a-a0f1-bc62187a2d37","FLIR Systems","Wilsonville","OR","","45.32029","-122.76543","575147.60","575147.60"
"58e256e5-b37d-e111-8bb2-0026b9f9e50c","FM Global","Johnston","RI","US","41.80884","-71.49419","21772.33","0.00"
"b1a23d50-b0a3-e211-92f3-0026b9f9e50c","Follett Corporation","Westchester","Illinois","United States","41.91932","-87.85003","144281.50","22968.07"
"cfb0ecc4-04d7-43b8-a055-4a8a24ad4dab","FORD MOTOR COMPANY","DEARBORN","IL","USA","41.66363","-87.56131","0.00","0.00"
"2c4c6336-4771-e211-92f3-0026b9f9e50c","Forum Extended Care Services","Chicago","Illinois","United States","41.98483","-87.73226","54398.69","8258.75"
"60db5248-4771-e211-92f3-0026b9f9e50c","Fresenius Kabi USA","Lake Zurich","Illinois","United States","42.19989","-88.03936","353083.08","31371.25"
"31473030-3030-3030-7764-344d70494149","Fusion Risk Management","Rolling Meadows","Illinois","United States","42.06119","-88.02489","98886.25","17515.00"
"1889a24b-f398-df11-90d5-00101826f7f4","GATX Corporation","Chicago","IL","","41.87944","-87.63419","530676.25","0.00"
"a8922392-56e1-db11-8eef-0003ff9e2b47","GENERAL GROWTH PROPERTIES","Chicago","IL","United States","41.88377","-87.6378","2299193.50","41000.00"
"a2bf8b39-18fc-dc11-a14f-00101826f7f4","Godfathers Pizza Inc","Omaha","NE","USA","41.28471","-96.08204","15000.00","0.00"
"31473030-3030-3031-4279-6a7a4f494152","Goodman Networks","Plano","Texas","United States","33.01717","-96.83772","3600.00","0.00"
"c0922392-56e1-db11-8eef-0003ff9e2b47","GRANT THORNTON LLP","Oakbrook Terrace","IL","US","41.84743","-87.98963","402480.00","234900.00"
"0b6364d8-b644-db11-b58f-0003ff32d6e5","Graycor, Inc.","Oakbrook Terrace","IL","US","41.8498","-87.95794","71385.53","0.00"
"3bc548bb-5a9b-e411-80ba-00155dfc3b0a","Green Plains","Omaha","NE","","41.2548","-96.07472","60706.78","46216.78"
"6f46c27e-3c16-e311-8486-0026b9f9e50c","Green Shield Canada","","","","0","0","28465.00","0.00"
"235319d7-dcdc-e111-aa06-0026b9f9e50c","GuideStone Financial Resources","Dallas","TX","","32.79716","-96.80589","3678.75","3678.75"
"2e681c1b-b179-e111-8bb2-0026b9f9e50c","Harley-Davidson Dealer Systems, Inc.","Cleveland","OH","US","41.39294","-81.61633","1094161.28","802346.00"
"31473030-3030-3031-3766-30566b494149","Hazelcast","","California","United States","0","0","3200.00","0.00"
"9004732a-4771-e211-92f3-0026b9f9e50c","Hedge Fund Research","Chicago","Illinois","United States","41.88167","-87.6388","20500.00","0.00"
"864de6b4-7c66-e311-8486-0026b9f9e50c","Helix Education","Englewood","CO","US","40.72155","-111.98079","1140623.63","654320.56"
"671f8eb4-c708-e211-aa06-0026b9f9e50c","Henkels & McCoy, Inc.","Blue Bell","PA","US","40.14783","-75.28937","92.50","0.00"
"31473030-3030-3031-4452-436e50494158","Heurtey Petrochem","Vincennes Cedex","","France","0","0","6057.50","6057.50"
"31473030-3030-3030-7678-507831494145","HighGround, Inc.","Chicago","Illinois","United States","41.89936","-87.64383","6490.00","0.00"
"31473030-3030-3030-767a-4f473449414d","Hisco","Houston","Texas","United States","29.86583","-95.54681","177613.26","79396.96"
"d7bfa500-ceb4-e111-b5e5-0026b9f9e50c","HITT Contracting Inc.","Falls Church","VA","","38.87274","-77.21844","119048.45","105753.45"
"27b7cb31-5516-df11-a75b-00101826f7f4","HNI Corporation","Muscatine","IA","","41.42315","-91.04174","5000.00","0.00"
"31473030-3030-3031-6143-666747494153","Hobsons U.S.","Cincinnati","OH","United States","39.28272","-84.36476","55595.00","55595.00"
"5573cf92-a417-e211-aa06-0026b9f9e50c","Holiday Retirement","Lake Oswego","OR","","45.41781","-122.73809","2807186.07","605644.59"
"195bb49e-73fb-dc11-a14f-00101826f7f4","Home Instead, Inc.","Omaha","NE","USA","41.26644","-96.12193","5439978.69","2747.50"
"d23a3042-18fc-dc11-a14f-00101826f7f4","Hoover's, Inc.","Austin","TX","USA","30.3219","-97.71538","784917.09","0.00"
"5feb6471-e924-4e7a-a82e-db5dd73538dc","Hub International Limited","Chicago","IL","USA","41.8782","-87.62579","2442284.24","348677.14"
"6163aaf2-e236-e111-a4ff-0026b9f9e50c","Hylant Group","Toledo","OH","United States","41.65314","-83.53957","317445.20","184379.59"
"56c60663-0458-dc11-bd4b-00101826f7f4","IAHCSMM","Chicago","IL","USA","41.89719","-87.63521","200212.75","410.00"
"76e2d939-63bb-e411-80ba-00155dfc3b0a","IBM SaaS Group","","","","0","0","65000.00","0.00"
"365bb49e-73fb-dc11-a14f-00101826f7f4","Ideal Image","Tampa","FL","","27.94427","-82.52476","142649.99","52701.05"
"b92475bd-50f7-4872-b97f-99ccf3d44b10","Ideal Industries Inc","Sycamore","IL","United States","41.97496","-88.69159","34111.40","33113.90"
"f25f4808-b2d8-db11-bcaf-0003ff9e2b47","IDEX","Lake Forest","IL","USA","42.24224","-87.89106","491322.96","58298.39"
"a18000f8-ebf6-dc11-a14f-00101826f7f4","IES Abroad","Chicago","IL","USA","41.88284","-87.63203","155502.75","3277.50"
"8195b21b-3aec-410f-ae14-2827c3c9e6f2","Illinois Municipal Retirement Fund","Oak Brook","IL","USA","41.84644","-87.92775","0.00","0.00"
"6c27cca9-8ff6-e011-bd69-0026b9f9e50c","InPro Corporation","Muskego","WI","United States","42.88293","-88.1263","138443.85","0.00"
"dd8b1ce5-41c7-e011-8a04-0026b9f9e50c","Inrule Technology","Chicago","IL","","41.88279","-87.64487","1192.50","0.00"
"229f0b42-f763-e211-92f3-0026b9f9e50c","Integrated DNA Technologies","Coralville","IA","","41.69589","-91.61404","295299.58","255534.07"
"c45a7272-de05-db11-8305-0003ff32d6e5","JLL (Jones Lang LaSalle)","CHICAGO","IL","USA","41.88526","-87.62149","3823769.98","143498.00"
"f6d8e1e2-d6ab-e411-80ba-00155dfc3b0a","Kapnick Insurance Group","Adrian","MI","","41.89439","-84.06659","86494.90","60353.65"
"9aa92d66-773a-de11-b9e8-00101826f7f4","Katz, Sapper & Miller, LLP","Indianapolis","IN","US","39.92718","-86.14384","18240.36","16462.86"
"31473030-3030-3031-4277-564c3049414e","Kavo Kerr Group","","","United States","0","0","154774.81","149144.81"
"31473030-3030-3030-7766-356130494141","Kellogg Company","Battle Creek","Michigan","United States","42.35237","-85.2301","411727.08","218050.93"
"e77763ad-a49c-e211-92f3-0026b9f9e50c","KPMG","NEW YORK","NJ","USA","41.04859","-74.07028","0.00","0.00"
"a8155826-7549-e411-a635-0026b9f9e50c","KPMG Corporate Finance","","","","0","0","33683.75","33683.75"
"31473030-3030-3030-7a63-513076494145","Laurus Strategies","Chicago","Illinois","United States","41.88034","-87.63007","24788.75","0.00"
"4b6593fd-6f83-e211-92f3-0026b9f9e50c","Leader Dogs for the Blind","Rochester Hills","MI","","42.66504","-83.13139","564045.62","186331.63"
"31473030-3030-3031-304d-394545494130","Leaderpromos.com","Columbus","Ohio","United States","40.03823","-82.8644","95060.98","3427.50"
"cb01df01-aa0f-dc11-bb0f-00101826f7f4","Lemme Insurance Group","Arlington Heights","IL","","42.08281","-87.9844","28133.02","0.00"
"e5471258-4d77-4b11-9f56-d24f3379ec56","Lesman Instrument Company","Bensenville","IL","United States","41.93231","-87.945","146802.50","0.00"
"5d286b30-4771-e211-92f3-0026b9f9e50c","Life Spine","","","","0","0","0.00","0.00"
"c41915ac-fb8d-e011-8a04-0026b9f9e50c","LinkedIn","Mountain View","CA","","37.42332","-122.07451","95010.00","24005.00"
"cab791f8-503f-e411-a635-0026b9f9e50c","M. Holland Company","Northbrook","IL","","42.14398","-87.79691","899616.45","884025.20"
"065de84f-75b1-e111-b5e5-0026b9f9e50c","Macias Gini & O'Connell LLP (MGO)","Sacramento","CA","US","38.56283","-121.47071","21075.84","16197.50"
"f9acae72-96f4-e211-8486-0026b9f9e50c","Mark Anthony Brands Inc (MABI)","Chicago","IL","USA","41.87695","-87.64288","323768.08","68552.11"
"955117ff-07e4-e211-8486-0026b9f9e50c","Mark Anthony Group (MAG)","Vancouver","BC","Canada","49.26642","-123.08437","135640.36","87100.36"
"328c5dc2-d159-de11-b9e8-00101826f7f4","Marquette Associates","Chicago","IL","USA","41.88536","-87.633","30039.00","0.00"
"1d8e1194-7561-dc11-ab02-00101826f7f4","Martin Sprocket & Gear","Arlington","TX","","32.69495","-97.14195","119149.87","109589.87"
"b2a73f76-c06e-dd11-bee3-00101826f7f4","McCain, Inc","Vista","CA","","33.13623","-117.24206","49032.50","0.00"
"b86b20f0-95ff-de11-a75b-00101826f7f4","McCarthy Building Companies, Inc.","Saint Louis","MO","US","38.61721","-90.36487","377275.78","105.00"
"d0a672a2-8487-e211-92f3-0026b9f9e50c","MDC Holdings","Denver","CO","United States","39.6366","-104.91272","528553.02","349641.40"
"92286b30-4771-e211-92f3-0026b9f9e50c","Means Industries","Saginaw","Michigan","United States","43.45188","-83.88452","29377.59","0.00"
"80f2606a-74b9-e111-aa06-0026b9f9e50c","Medela, Inc.","McHenry","IL","US","42.31259","-88.28621","165228.45","141625.95"
"58fe3579-f33b-e111-a4ff-0026b9f9e50c","Medline Industries","Mundelein","IL","United States","42.24291","-87.98861","2587083.66","0.00"
"4f0dd876-a9ca-e111-aa06-0026b9f9e50c","Merial","Duluth","GA","","33.96455","-84.1192","632455.27","385148.45"
"31473030-3030-3031-4632-43507249414e","Mesa Laboratories, Inc.","Lakewood","Colorado","United States","39.72486","-105.13673","3200.00","0.00"
"e2756a2c-3b90-e311-9df5-0026b9f9e50c","Metro Bank UK","London","","UK","0","0","38000.00","38000.00"
"d14c14c1-e6a2-da11-8423-0003ff19cd51","MGM Mirage - Project City Center","Las Vegas","NV","US","36.11185","-115.17699","290157.82","0.00"
"5845d661-0355-475b-974c-38bc0022a5fc","Microsoft","Redmond","WA","USA","47.64012","-122.12971","156375.02","102500.00"
"12fb6de7-41ef-db11-882b-0003ff9e2b47","Microsoft Central Region","","","","0","0","1750.00","0.00"
"b69a347a-829b-db11-9a1a-0003ff32d6e5","Microsoft Consulting Services","","","","0","0","50000.00","40000.00"
"15c5df38-7776-dc11-ab02-00101826f7f4","Microsoft Dynamics ISV Business Development","","","","0","0","23000.00","0.00"
"211270ed-6b62-da11-9d37-0003ff19cd51","Microsoft Press","Redmond","WA","","47.64013","-122.12973","0.00","0.00"
"0a5507fb-a265-e211-92f3-0026b9f9e50c","Midland IRA","Chicago","IL","","41.87975","-87.63152","108465.00","4972.50"
"d8583c33-8fb5-e111-b5e5-0026b9f9e50c","Mission Linen Supply","Santa Barbara","CA","US","34.42234","-119.68466","6457.50","0.00"
"03205d29-55cf-e111-aa06-0026b9f9e50c","Miyamoto International Inc","Los Angeles","CA","US","34.04828","-118.25896","39693.00","0.00"
"31473030-3030-3031-4179-647133494142","MNX Global Logistics","Inglewood","California","United States","33.9658","-118.36595","3200.00","0.00"
"a99bc3a4-240a-45df-9d5e-3eefce1be86f","MONSTER INC","New York","NY","USA","40.75009","-73.97588","141289.75","0.00"
"55992ccb-13b7-e111-b5e5-0026b9f9e50c","MorphoTrust USA","Billerica","MA","","42.53534","-71.2834","33415.26","6242.50"
"b6d43a25-6f60-4ec0-ab2a-2f86628a083f","Moss Adams LLP","SEATTLE","WA","United States","47.60504","-122.33424","48928.08","48928.08"
"b8373042-18fc-dc11-a14f-00101826f7f4","National Oilwell Varco","Houston","TX","USA","29.9377","-95.39719","22389.70","0.00"
"a5cdd034-e491-e011-8a04-0026b9f9e50c","National Oilwell Varco Completion and Production Solutions","Houston","TX","","29.6921","-95.55461","137240.52","54628.32"
"1299da56-70ce-e011-8a04-0026b9f9e50c","National Oilwell Varco- Tuboscope","","","","0","0","0.00","0.00"
"44312b4d-6397-e011-8a04-0026b9f9e50c","National Oilwell Varco- Wellsite Services","Houston","TX","USA","29.93889","-95.32428","42317.54","0.00"
"f3220371-fe01-df11-a75b-00101826f7f4","New Belgium Brewing Company Inc.","Fort Collins","CO","USA","40.59341","-105.06687","496120.00","87525.00"
"4ce39ad2-52bf-48d9-8090-3b48917e9ee7","NORTHERN TRUST CORPORATION","CHICAGO","IL","USA","41.88101","-87.63275","7097.00","0.00"
"dcf355a5-9c71-e411-b7a3-0026b9f9e50c","Otis Elevator Company","","","","0","0","0.00","0.00"
"73ec7f13-da42-47d7-9eb7-79b2f8c75d04","P.F. Chang's China Bistro","SCOTTSDALE","AZ","USA","33.69873","-111.91418","7588.08","0.00"
"d506f8cb-54b6-dd11-9bba-00101826f7f4","Parature, Inc.","Vienna","VA","USA","38.91386","-77.21981","63655.00","63655.00"
"9f39476d-26f2-dd11-97b3-00101826f7f4","Paylocity","Arlington Heights","IL","","42.14597","-88.00453","86845.00","86845.00"
"0cd08bc2-dbf6-dd11-85db-00101826f7f4","Pearson Embanet","Elk Grove Village","IL","USA","42.03392","-87.98289","1702622.68","331035.63"
"fa8b3cdd-beca-e111-aa06-0026b9f9e50c","Pennoni Associates Inc.","Philadelphia","PA","US","39.95548","-75.18376","123171.76","123171.76"
"63fa1798-56e1-db11-8eef-0003ff9e2b47","Pepsiamericas Inc.","Schaumburg","IL","USA","42.04318","-88.04353","0.00","0.00"
"0172f187-7561-dc11-ab02-00101826f7f4","PepsiCo","VALHALLA","NY","","41.03877","-73.69643","1530544.29","1269120.32"
"98a39bea-7cdf-e311-a635-0026b9f9e50c","PepsiCo Warehouse Services","","","","0","0","126000.00","126000.00"
"d2d0d7d1-ebc4-e011-8a04-0026b9f9e50c","Permuta","Springfield","VA","","38.78392","-77.1807","2597233.61","277613.75"
"31473030-3030-3031-4136-39456849414a","Petro-Chem Development","Houston","Texas","United States","29.78855","-95.59956","31565.77","2167.50"
"7f4a3627-b33c-4ee2-9f30-e8200ad06587","PING","Phoenix","AZ","USA","33.5849","-112.10448","82826.12","73771.12"
"31473030-3030-3031-3476-42586c49414d","Plano Molding Co.","Plano","IL","United States","41.66325","-88.53033","62272.27","1021.25"
"25878fe3-7461-dc11-ab02-00101826f7f4","Plante Moran","Southfield","MI","US","42.49014","-83.27761","677392.99","407531.29"
"381d2800-8f07-df11-a75b-00101826f7f4","Planview","Austin","TX","","30.39791","-97.74873","83536.60","0.00"
"d35544a9-e509-df11-a75b-00101826f7f4","PlattForm Advertising, Inc.","Lenexa","KS","","38.92297","-94.76421","578459.94","253301.25"
"31473030-3030-3030-7678-544f52494132","Point Eight Power","Belle Chasse","Louisiana","United States","29.85395","-90.02347","54129.59","12288.45"
"b56863a1-2a23-dc11-a113-00101826f7f4","Preferred Hotels & Resorts","Chicago","IL","USA","41.87766","-87.63619","486540.03","41796.70"
"17b702dd-05b9-4655-bd9f-a2c638f73276","Presence Health","Chicago","IL","USA","41.98878","-87.81323","228743.70","0.00"
"56716739-6511-e211-aa06-0026b9f9e50c","Press Ganey Associates","South Bend","IN","","41.67245","-86.2461","22750.00","0.00"
"62bc0585-cb55-de11-b9e8-00101826f7f4","Profile Products Llc","Buffalo Grove","IL","","42.15403","-87.97513","107085.95","142.50"
"095d2205-4b05-dc11-bb0f-00101826f7f4","Project Leadership Associates","Chicago","IL","","41.88004","-87.63411","97232.50","97232.50"
"563da1a8-9660-e111-b0e9-0026b9f9e50c","Quantum Real Estate Advisors","Chicago","IL","","41.88054","-87.63053","81229.50","3105.00"
"31473030-3030-3030-7931-707a32494141","Ravinia Capital, LLC","Chicago","Illinois","United States","41.88516","-87.63068","1092.50","0.00"
"43ada31f-f0c6-dd11-b032-00101826f7f4","Realogy Corporation","Madison","NJ","USA","40.84369","-74.45918","297482.12","36723.59"
"d7c625e3-7341-e311-8486-0026b9f9e50c","Reliance Home Comfort","Toronto","ON","Canada","43.77424","-79.32606","30975.07","29853.82"
"25d95313-9b8b-db11-9617-0003ff32d6e5","Resolution Media","Chicago","IL","USA","41.89585","-87.6366","56134.25","0.00"
"e9be74c6-2585-e411-b7a3-0026b9f9e50c","Retirement Systems of Alabama","Montgomery","AL","","32.37528","-86.29955","110352.69","110352.69"
"d0b77da9-073b-e211-9b2e-0026b9f9e50c","Revive Bath & Basements","Lincolnwood","IL","","42.00498","-87.73021","539722.61","2972.50"
"7be3b308-51e0-de11-a75b-00101826f7f4","Right Hear, LLC","Hewitt","TX","","31.43395","-97.19001","15000.00","0.00"
"31473030-3030-3031-5668-304d7149414a","RIM logistics, ltd.","Roselle","IL","","41.98668","-88.12341","105535.63","104725.63"
"c8e52b99-55e6-dc11-bd0d-00101826f7f4","RLI Insurance Company","Peoria","IL","USA","40.79741","-89.61115","380129.81","364278.75"
"611e80dd-062b-dc11-a113-00101826f7f4","Roadlink","Randolph","MA","","42.16572","-71.02367","84804.64","0.00"
"5fa0edf6-369b-e411-80ba-00155dfc3b0a","Ruffalo Noel Levitz","Cedar Rapids","IA","","41.91055","-91.6472","35546.75","35546.75"
"eaa6088e-7561-dc11-ab02-00101826f7f4","RUSH ENTERPRISES INC","New Braunfels","TX","","29.86843","-97.94068","64414.04","5347.50"
"1572beac-1aaa-4b42-915c-2941feb8ba20","RUSSELL REYNOLDS","","","","0","0","0.00","0.00"
"01f98466-87b5-e111-b5e5-0026b9f9e50c","Ryan Companies Us, Inc.","Minneapolis","MN","US","44.97403","-93.27481","248771.53","235266.48"
"5b22539b-cba2-e211-92f3-0026b9f9e50c","Salesforce.com","Chicago","Illinois","United States","41.89077","-87.63161","163000.00","143000.00"
"f08644d1-4b83-41b9-9fc1-131f3d8b5570","San Antonio Spurs LLC","San Antonio","TX","USA","29.43777","-98.39581","143056.49","0.00"
"d260bf15-1862-431f-948c-dcac46667d6c","SanDisk Corporation","SUNNYVALE","CA","","37.41683","-121.92266","2717953.79","765.00"
"faa6088e-7561-dc11-ab02-00101826f7f4","Security Service Federal Credit Union","SAN ANTONIO","TX","","29.59401","-98.61955","250854.88","54054.26"
"65e197fa-c931-4c11-a8ce-9e08074d8f64","Service Management Group","Kansas City","MO","","39.09196","-94.57977","3200.00","0.00"
"5df485f0-d624-dc11-a113-00101826f7f4","SetClear Inc.","New York","NY","USA","40.74463","-73.98391","305973.09","0.00"
"5a23f189-dad8-dc11-bd0d-00101826f7f4","Shelby Systems, Inc.","Cordova","TN","USA","35.17922","-89.81805","4785.00","0.00"
"94214b14-0606-db11-8305-0003ff32d6e5","Silicon Valley Bank","BEAVERCREEK","CA","USA","37.40348","-121.98038","1089443.72","0.00"
"91bb8b39-18fc-dc11-a14f-00101826f7f4","Sirius Computer Solutions Inc","San Antonio","TX","USA","29.52244","-98.50216","315683.16","0.00"
"31473030-3030-3031-6141-304e7249414b","SMBC Rail Services","","","","0","0","56991.25","56991.25"
"ab3f46c5-a73e-dc11-a113-00101826f7f4","SolerPazos Group","Coral Gables","FL","USA","25.71548","-80.27552","26176.25","0.00"
"7d3577cc-494e-4f34-86bb-803209df037f","Spraying Systems Co.","Glendale Heights","IL","United States","41.90393","-88.10133","147465.96","0.00"
"31473030-3030-3031-304d-36483349414b","Springleaf Financial","Evansville","Indiana","United States","37.97617","-87.5793","16012.10","0.00"
"b40efb27-d2b0-e111-b5e5-0026b9f9e50c","Squar Milner","Newport Beach","CA","","33.66324","-117.86523","1800.00","100.00"
"9d565842-4771-e211-92f3-0026b9f9e50c","Standard Parking","Chicago","Illinois","United States","41.89964","-87.62512","0.00","0.00"
"31473030-3030-3031-5a4b-4c4344494135","Starwood Retail","Chicago","IL","","41.88713","-87.62717","291989.82","285236.07"
"3437c473-b01a-e511-80bd-00155dfc3b0a","StoneTimberRiver LLC","Chapel Hill","NC","","35.91874","-79.0486","5250.00","5250.00"
"860661e7-17f0-e311-a635-0026b9f9e50c","Suburban Propane","Whippany","NJ","","40.83075","-74.41118","108912.30","108912.30"
"bbd6189c-7ea9-de11-8cc3-00101826f7f4","Subway World Headquarters","Milford","CT","USA","41.21593","-73.09229","36577.21","0.00"
"404fcca6-67cb-478b-a3fa-7bd58c4fc7cb","Sullivan & Cromwell","New York","NY","","40.70205","-74.01105","563229.78","554416.03"
"4962129f-bccc-e311-9df5-0026b9f9e50c","Synergis Education","Chandler","AZ","US","33.32096","-111.80959","70046.25","70046.25"
"99286b30-4771-e211-92f3-0026b9f9e50c","System Development Integration (SDI)","Chicago","IL","","41.88036","-87.62897","0.00","0.00"
"16add8b0-5e7d-df11-bb45-00101826f7f4","The City by Zondervan","Seattle","WA","","47.6326","-122.34164","10467.15","0.00"
"5dc7109b-ae16-45da-80db-91ab99a036fd","The Maschhoffs","Caryle","IL","","40.12415","-89.14863","18346.25","0.00"
"fb7dac50-da65-406d-bf8c-9b953c6479d8","Thrivent Financial For Lutherans","Minneapolis","MN","US","44.97478","-93.26608","176120.80","0.00"
"3196d71b-73f3-e111-aa06-0026b9f9e50c","TinderBox","Indianapolis","IN","","39.84881","-86.14166","42260.00","11440.00"
"a42975b8-a435-de11-b9e8-00101826f7f4","Top-Co LP","Edmonton","Alberta","Canada","53.51398","-113.37038","190025.07","0.00"
"db9e5203-377d-e311-8486-0026b9f9e50c","Toyota Industries","Columbus","IN","","39.14473","-85.95279","483479.66","428526.79"
"adf2f3d6-5b7e-db11-aa28-0003ff32d6e5","Trading Technologies","Chicago","IL","--","41.87898","-87.63855","127330.00","0.00"
"f8f548fa-3586-e411-b7a3-0026b9f9e50c","Trubridge Insurance","North Canton","OH","","40.87583","-81.39888","179328.78","171128.78"
"c0c1bbe0-e364-e211-92f3-0026b9f9e50c","Trunk Club","Chicago","IL","USA","41.89534","-87.63628","3937.50","0.00"
"a304732a-4771-e211-92f3-0026b9f9e50c","Trunk Club","Chicago","Illinois","United States","41.89211","-87.63663","0.00","0.00"
"0f295c03-010d-df11-a75b-00101826f7f4","Trustwave","Chicago","IL","United States","41.88231","-87.63022","211879.65","23312.50"
"cc04732a-4771-e211-92f3-0026b9f9e50c","Tuthill Corporation","Burr Ridge","Illinois","United States","41.73463","-87.9369","301105.28","16416.25"
"5059a32f-b89d-e411-80ba-00155dfc3b0a","Tuthill Transfer Systems","Fort Wayne","IN","","41.00336","-85.19984","27498.75","23906.25"
"ddbd8928-f365-dc11-ab02-00101826f7f4","Uhlmann Price Securities, LLC","Chicago","IL","USA","41.87772","-87.63228","51266.50","0.00"
"8a6827ba-2225-e211-bb4e-0026b9f9e50c","Ulbrich","North Haven","CT","","41.39742","-72.85391","57041.25","12046.25"
"76bfb1da-ebe9-db11-882b-0003ff9e2b47","United Center","Chicago","IL","USA","41.88062","-87.67476","1829763.75","28473.75"
"b7fa1798-56e1-db11-8eef-0003ff9e2b47","USG Corporation","Chicago","IL","USA","41.87941","-87.64144","46388.15","0.00"
"3a10d316-7604-41c8-96a3-dbd394a248b7","Valerus","Houston","TX","","29.758","-95.36602","28797.50","951.25"
"cd40b495-e3e0-4499-99a7-ee7b2fafec11","ValleyCrest Companies","Calabasas","CA","","34.15335","-118.65377","801256.41","13125.00"
"68feb950-fe7e-e411-b7a3-0026b9f9e50c","Van Meter, Inc","","","","0","0","0.00","0.00"
"cc70eb06-29d8-4217-b797-54f8954847c8","Ventas Inc","Chicago","Illinois","United States","41.88853","-87.63098","827.50","827.50"
"8474e937-852f-e311-8486-0026b9f9e50c","Victaulic Company","Easton","PA","US","40.75903","-75.2308","13225.00","0.00"
"8714062a-9224-e411-a635-0026b9f9e50c","Wacom","Vancouver","WA","US","45.61082","-122.49474","620170.49","620170.49"
"eeae6c55-3da2-de11-8cc3-00101826f7f4","WellBiz Brands, Inc.","Highlands Ranch","CO","","39.55118","-104.99471","62515.00","2895.00"
"fc4c1ea8-d01c-4d84-ab8f-0103b8fc157d","Wells Fargo","San Francisco","CA","","37.79317","-122.40277","602110.79","602110.79"
"450b97f3-fcc7-db11-b5db-0003ff32d6e5","West Corporation","Omaha","NE","USA","41.26864","-96.09753","49820.55","0.00"
"c1daec4e-4771-e211-92f3-0026b9f9e50c","West Liberty Foods","West Liberty","Iowa","United States","41.57049","-91.26075","0.00","0.00"
"4ffa1798-56e1-db11-8eef-0003ff9e2b47","WHEELS INC","DES PLAINES","IL","USA","42.04102","-87.87608","36297.50","0.00"
"1081cea5-01dc-dc11-bd0d-00101826f7f4","Williams & Williams","Tulsa","OK","","36.15398","-95.99278","12782.52","0.00"
"88014316-6e31-dd11-8d4f-00101826f7f4","WITTENSTEIN Inc.","Bartlett","IL","","41.97781","-88.21606","214395.44","95.00"
"bfb8cb87-f0f8-db11-b46a-00101826f7f4","YRC Worldwide, Inc.","Overland Park","KS","USA","38.93029","-94.63974","420156.43","28810.00"
"31473030-3030-3031-4136-443434494146","ZenPayroll","San Francisco","CA","","37.78298","-122.39452","3500.00","0.00"
"02c98b39-18fc-dc11-a14f-00101826f7f4","Zondervan Corp","Grand Rapids","MI","USA","42.86774","-85.54378","677753.77","0.00"
